#dP2023  3 28  0  0  0.00000000      96 __u+U ITR00 FIT  IAC
## 2255 172800.00000000   900.00000000 60031 0.0000000000000
+  120   C06C07C08C09C10C11C12C13C14C16C19C20C21C22C23C24C25
+        C26C27C28C29C30C32C33C34C35C36C37C38C39C40C41C42C43
+        C44C45C46E01E02E03E04E05E07E08E09E10E11E12E13E14E15
+        E18E19E21E24E25E26E27E30E31E33E34E36G01G02G03G04G05
+        G06G07G08G09G10G11G12G13G14G15G16G17G18G19G20G21G22
+        G23G24G25G26G27G28G29G30G31G32J02J03J04R01R02R03R04
+        R05R07R08R09R11R12R13R14R15R16R17R18R19R20R21R22R24
+        R25  0  0  0  0  0  0  0  0  0  0  0  0  0  0  0  0
++         9  8  8  7  7  8  8  8  7  9  8  7  8  6  6  7  7
++         8  6  8  8  7  6  7  6  7  7  5  9 10  8  7  7  7
++         8  6  6  6  7  7  7  7  7  6  7  6  6  6  6  7  5
++         6  6  6  7  6  6  6  7  6  6  6  6  6  6  7  6  7
++         6  7  6  6  6  6  6  5  6  5  6  5  6  6  6  6  7
++         6  6  6  5  7  8  6  6  7  6  6  8  8  6  7  6  5
++         7  7  7  5  6  6  8  6  7  7  7  6  8  7  6  6  8
++         6  0  0  0  0  0  0  0  0  0  0  0  0  0  0  0  0
%c M  cc GPS ccc cccc cccc cccc cccc ccccc ccccc ccccc ccccc
%c cc cc ccc ccc cccc cccc cccc cccc ccccc ccccc ccccc ccccc
%f  0.0000000  0.000000000  0.00000000000  0.000000000000000
%f  0.0000000  0.000000000  0.00000000000  0.000000000000000
%i    0    0    0    0      0      0      0      0         0
%i    0    0    0    0      0      0      0      0         0
/* INFORMATION & ANALYSIS CENTER (IAC)      ULTRA-RAPID DATA
/* S/V CLOCKS ARE ALIGNED TO GNSS TIME                      
/* G:C1WC2W R:C1PC2P E:C1XC5X C:C2IC6I J:C1CC2S             
/* PCV:IGS20_2247 OL/AL:FES2004  NONE     YN ORB:CoN CLK:CoN
*  2023 03 28  9  0  0.00000000
PC06  -4272.870599  25676.746819 -33098.039988   -197.023431
PC07 -18444.533157  32484.141454  19425.556663    -85.747726
PC08  -6502.462381  40443.754640  10364.916316    513.416053
PC09   5168.558502  29345.320732 -29209.089558    831.896114
PC10 -10316.686312  32518.517714  24756.532611    -19.524860
PC11 -20223.367668   4600.630648  18728.356810    730.607366
PC12 -26293.721943  -8703.895594   3444.098905    534.578772
PC13  -2264.185685  42028.311005   4393.768527    239.742607
PC14 -22856.788728  15732.413382   2668.019691     48.621605
PC16  -6626.773106  23814.101968 -33895.644275    126.119397
PC19  18106.946435 -20159.751579   6755.924087   -897.751655
PC20  23977.767839 -10225.387774  -9991.228751    656.541939
PC21 -15735.113684  -6779.061251  22043.487022   -908.917503
PC22   1554.534504 -18967.488713  20425.896693   -563.998530
PC23   3449.692340  27685.643417   -668.069788   -895.233571
PC24 -16341.546373    885.243134 -22619.367756   -240.711580
PC25  -8063.145648  21423.729733 -15986.206840     95.678592
PC26 -14678.365201 -17357.417907 -16180.919509    -98.172350
PC27  23870.508376  13576.497532   4891.709011    117.125601
PC28   9920.640545  18180.758645  18703.596246     86.001233
PC29  11288.784525 -12412.905093 -22305.176781     99.446227
PC30  25391.045099    818.444279 -11528.277453      0.674993
PC32  15770.157286   6667.653328 -22017.911307   -590.265331
PC33 -18045.841204  20215.098585  -6612.920398   -871.431038
PC34 -24938.629615     86.852930  12536.353425    136.317562
PC35  -9551.646221 -17892.798968 -19198.252889 999999.999999
PC36   8990.294914 -20660.371288  16477.686579   -536.616973
PC37  13784.431195  18901.623444  15238.357155   -796.473625
PC38 -11242.465883  36602.182628  17838.212102     67.935587
PC39 -12307.088874  20682.000191 -34579.839054     -2.344949
PC40 -25381.339437  27276.150016  19494.672123    -18.770988
PC41  -2115.959997  19226.580229 -20053.081712   -778.480031
PC42 -23878.087864   9117.447344  11218.384239   -764.925551
PC43 -12222.122205  12012.090509  22017.752801     13.911386
PC44 -24266.861459 -12849.886825  -5098.868260 999999.999999
PC45  -3726.677765 -27642.990325    232.423075    -77.815239
PC46  15965.527195  -2721.805072  22718.403520    -42.975607
PE01   7717.801288 -27934.223543  -6011.791369    -10.994369
PE02  -7402.188193  27936.543433   6434.509356     28.964118
PE03  -4270.510258  17253.705005 -23664.912211   -663.550842
PE04 -17228.897227 -12521.453711  20567.512697    -88.079009
PE05 -23811.507041  11941.704269 -12897.568472    -82.229309
PE07  29105.021604    380.134614  -5394.525503    -33.244712
PE08  17044.185617  12456.339630 -20747.161667    -58.228023
PE09 -29053.394737   -437.782459   5617.160782   -884.668753
PE10 -21412.593464 -17959.813492   9754.317058   -522.306836
PE11 -21468.194684  -8845.373647  18363.354575   1406.875918
PE12 -17984.237483 -23524.392563    455.456345   -475.897742
PE13  21568.086358   9608.118877 -17838.657824    -18.077023
PE14   8787.350273 -19599.375982 -23353.090882    180.932535
PE15  17838.379020  23611.704143   -101.085011    -10.537077
PE18   6150.567002  15686.911345  18669.895195   -231.972770
PE19   7400.584081 -16991.697348  23091.296937  -2902.246744
PE21  17488.771662 -21110.979052  11150.971030   -520.071030
PE24 -18004.663313    742.160901 -23507.953795 999999.999999
PE25 -17604.336415  20869.067277 -11446.146802   -602.186126
PE26  12188.216115 -10672.053417 -24769.330885     58.463793
PE27  18153.968687  -1680.688205  23312.163411    -11.054843
PE30   7648.733484  19084.887883  21283.985690    -46.676517
PE31  -8127.031328 -18517.065500 -21613.527069   -519.752105
PE33  -3624.077798 -23572.562712 -17539.288435   -447.879172
PE34   3790.084438  23618.888403  17428.715162    -37.221920
PE36 -12635.973493   9823.011702  24902.208181    -32.820953
PG01 -18714.745580  -9363.049204  16244.172217    198.490111
PG02  18775.015624   4188.631724 -17588.293984   -610.974614
PG03 -16527.052600   2247.256658  20516.341611   -341.512966
PG04 -26558.372725   -436.839418   1798.133717      3.204275
PG05   9282.715384  14262.604299 -20531.550780   -121.190505
PG06   1896.986591  21478.428921  15506.279433    584.199472
PG07 -14487.725967   5499.826236 -21167.944774    213.848956
PG08 -22054.335513  -7329.581573 -13277.585438   -115.040887
PG09 -23872.009373   8107.626635  -8499.421120   -191.775718
PG10  10872.251244 -24024.807441   1211.178322    -30.404434
PG11  11934.037214  23600.737784   2663.184316   -144.027837
PG12  16025.016627   1147.911571  20850.917024   -356.936445
PG13  15515.029354  13093.165513 -17405.573282    497.232565
PG14 -13452.766102  22757.108380  -1599.303428      8.326094
PG15  22857.326277   5263.656030 -13165.952687     25.507210
PG16  -5694.460921 -16967.125402 -19775.895009   -512.713327
PG17 -13322.598912  13140.307920  19320.044279    707.791742
PG18  11557.802375  -9563.803982 -21909.593022   -198.986697
PG19  -2523.244396  14681.685420  21745.533109    295.985988
PG20   3669.572495  22440.738643 -13856.027869    442.311641
PG21 -20544.350728 -14977.866480   9606.864963    154.323300
PG22  -1369.454681 -15388.014132  22057.102424    453.626104
PG23  16149.319999 -18220.586366 -10430.423880     13.184641
PG24  20681.789599  11689.993407  11938.770754   -129.425108
PG25  17797.130076 -10392.133724  16288.761561    431.199871
PG26   2343.350496 -24471.619515  -9720.046854    241.962995
PG27 -12184.527902 -13002.579736 -20069.609401     71.347918
PG28   -792.811149 -20779.161726  16498.964104     53.783863
PG29  25844.911059  -3356.940772  -5390.525894   -592.952904
PG30  -5522.299112  17336.693974 -19158.184188   -525.021436
PG31  -5104.895526 -23107.646472  11438.096337   -212.652898
PG32   9580.101989 -14770.576355  20002.673834   -435.944304
PJ02 -25673.204454  31845.451334  -5753.029376     -1.328684
PJ03 -27040.610472  21723.929094  29050.929064      1.465520
PJ04 -33598.594991  25568.513928   2984.171633     94.149971
PR01 -16030.282022  15630.651198 -12201.496666     25.587620
PR02    749.609491  11576.589352 -22674.334703    -23.056040
PR03  16818.384752   1347.509304 -19056.987281     74.982980
PR04  23189.812319  -9342.144818  -5000.989547    181.099890
PR05  17012.867663 -14896.058382  11799.658505    110.037094
PR07 -17436.015901   -831.323884  18665.756893     52.645956
PR08 -23185.231271   9486.217312   4950.743869    -70.107068
PR09  -3170.177313 -24339.870775  -7072.251425    111.581832
PR11 -10752.729743   5894.550994 -22358.356989    -25.847790
PR12  -5804.708448  22493.779986 -10536.483131     25.995881
PR13   2001.191423  24862.434042   5330.226961    -33.382917
PR14   9542.381094  12049.962646  20358.137234     24.473835
PR15  10828.119782  -7073.899187  22000.058436     90.173130
PR16   5712.598050 -22354.415866  10916.135806     12.876781
PR17  21775.268149  13254.757415  -1287.605057    616.168088
PR18  19025.480344   3552.291986 -16568.750921     73.674414
PR19   8014.176228  -6965.841695 -23193.854644   -226.944433
PR20 -11174.128744 -16449.504951 -15999.700494    -90.107210
PR21 -21942.704302 -12627.127446   3044.877292   -383.686086
PR22 -18678.239744  -3339.075172  17083.959609     76.810280
PR24  12009.517008  16417.240881  15411.276796    157.339117
PR25 -21070.985049 -14325.474740   1056.142114 999999.999999
EOF
